ORBCOMM FM115           
1 41186U 15081H   24320.44089240  .00002067  00000+0  44589-3 0  9994
2 41186  46.9988 335.5488 0000560 253.3482 106.7344 14.61655758476493
ORBCOMM FM108           
1 41187U 15081J   24319.58848796  .00002780  00000+0  64290-3 0  9990
2 41187  47.0054  39.9190 0001895   1.8263 358.2629 14.57458661475566
ORBCOMM FM117           
1 41188U 15081K   24319.55505810  .00002743  00000+0  63545-3 0  9996
2 41188  47.0017  38.9142 0002028  25.7235 334.3751 14.57424352475577
ORBCOMM FM116           
1 41189U 15081L   24320.16135686  .00001485  00000+0  36092-3 0  9995
2 41189  47.0011 125.8891 0002145 166.3158 193.7785 14.57424127474499
